NORAD_CAT_ID,OBJECT_NAME,OBJECT_TYPE,EPOCH,MEAN_MOTION,ECCENTRICITY,INCLINATION,RA_OF_ASC_NODE,ARG_OF_PERICENTER,MEAN_ANOMALY,BSTAR,MEAN_MOTION_DOT,MEAN_MOTION_DDOT,TLE_LINE0,TLE_LINE1,TLE_LINE2,SEMIMAJOR_AXIS,PERIOD,APOGEE,PERIGEE,DECAYED
52876.0,STARLINK-4200,PAYLOAD,2022-08-16 22:00:00,15.73241982,0.0003372,53.2147,105.9769,10.1862,125.63,-0.00043374,-0.00061185,0.0,0 STARLINK-4200,1 52876U 22062AY  22228.91667824 -.00061185  00000-0 -43374-3 0  9996,2 52876  53.2147 105.9769 0003372  10.1862 125.6300 15.73241982  1305,6727.775,91.531,351.909,347.372,0.0
52876.0,STARLINK-4200,PAYLOAD,2022-08-17 14:00:01,15.73173431,0.0003212,53.2152,102.6756,7.8636,305.8125,0.00045556,0.0006374,0.0,0 STARLINK-4200,1 52876U 22062AY  22229.58334491  .00063740  00000-0  45556-3 0  9992,2 52876  53.2152 102.6756 0003212   7.8636 305.8125 15.73173431  1306,6727.971,91.535,351.997,347.675,0.0
52876.0,STARLINK-4200,PAYLOAD,2022-08-18 08:00:01,15.73222966,0.0003353,53.2153,98.9651,4.8756,238.9316,7.5484e-05,9.996e-05,0.0,0 STARLINK-4200,1 52876U 22062AY  22230.33334491  .00009996  00000-0  75484-4 0  9994,2 52876  53.2153  98.9651 0003353   4.8756 238.9316 15.73222966 10232,6727.83,91.532,351.951,347.439,0.0
52876.0,STARLINK-4200,PAYLOAD,2022-08-18 14:00:01,15.73257674,0.0003168,53.2155,97.725,6.7010000000000005,213.82,-0.00030747,-0.0004367,0.0,0 STARLINK-4200,1 52876U 22062AY  22230.58334491 -.00043670  00000-0 -30747-3 0  9992,2 52876  53.2155  97.7250 0003168   6.7010 213.8200 15.73257674  1300,6727.731,91.53,351.727,347.464,0.0
52876.0,STARLINK-4200,PAYLOAD,2022-08-18 22:00:00,15.73052948,0.0003484,53.2167,96.0756,10.1843,299.3647,0.00041665,0.00057903,0.0,0 STARLINK-4200,1 52876U 22062AY  22230.91667824  .00057903  00000-0  41665-3 0  9991,2 52876  53.2167  96.0756 0003484  10.1843 299.3647 15.73052948 10323,6728.314,91.542,352.524,347.835,0.0
52876.0,STARLINK-4200,PAYLOAD,2022-08-19 06:00:00,15.73209486,0.0003501,53.2171,94.4241,6.4823,31.8109,-5.287e-05,-8.042e-05,0.0,0 STARLINK-4200,1 52876U 22062AY  22231.25001157 -.00008042  00000-0 -52870-4 0  9993,2 52876  53.2171  94.4241 0003501   6.4823  31.8109 15.73209486 10373,6727.868,91.533,352.089,347.37800000000016,0.0
52876.0,STARLINK-4200,PAYLOAD,2022-08-19 14:00:01,15.731249900000002,0.0003247,53.2158,92.7781,8.3593,119.0866,0.00028316,0.00039184,0.0,0 STARLINK-4200,1 52876U 22062AY  22231.58334491  .00039184  00000-0  28316-3 0  9995,2 52876  53.2158  92.7781 0003247   8.3593 119.0866 15.73124990  1308,6728.109,91.538,352.159,347.789,0.0
52876.0,STARLINK-4200,PAYLOAD,2022-08-19 16:00:00,15.73123253,0.0003266,53.216,92.3662,8.5694,231.0862,0.00028349,0.00039228,0.0,0 STARLINK-4200,1 52876U 22062AY  22231.66667824  .00039228  00000-0  28349-3 0  9998,2 52876  53.2160  92.3662 0003266   8.5694 231.0862 15.73123253 10447,6728.114000000001,91.538,352.176,347.782,0.0
52876.0,STARLINK-4200,PAYLOAD,2022-08-19 22:00:00,15.73136735,0.000356,53.2159,91.1309,8.7442,207.5493,0.0002682,0.00037092,0.0,0 STARLINK-4200,1 52876U 22062AY  22231.91667824  .00037092  00000-0  26820-3 0  9995,2 52876  53.2159  91.1309 0003560   8.7442 207.5493 15.73136735  1302,6728.076,91.537,352.336,347.545,0.0
52876.0,STARLINK-4200,PAYLOAD,2022-08-20 14:00:01,15.73137491,0.0003362,53.2159,87.8302,13.8687,20.1787,0.00053956,0.00075599,0.0,0 STARLINK-4200,1 52876U 22062AY  22232.58334491  .00075599  00000-0  53956-3 0  9994,2 52876  53.2159  87.8302 0003362  13.8687  20.1787 15.73137491  1300,6728.073,91.537,352.2,347.676,0.0
52876.0,STARLINK-4200,PAYLOAD,2022-08-20 22:00:00,15.73173782,0.0003623999999999,53.2157,86.1831,13.0495,109.878,0.0003049,0.00042348,0.0,0 STARLINK-4200,1 52876U 22062AY  22232.91667824  .00042348  00000-0  30490-3 0  9994,2 52876  53.2157  86.1831 0003624  13.0495 109.8780 15.73173782  1308,6727.97,91.535,352.273,347.397,0.0
52876.0,STARLINK-4200,PAYLOAD,2022-08-21 06:00:00,15.73216222,0.0003553,53.2158,84.5328,12.4693,199.3496,-8.1627e-05,-0.00012075,0.0,0 STARLINK-4200,1 52876U 22062AY  22233.25001157 -.00012075  00000-0 -81627-4 0  9998,2 52876  53.2158  84.5328 0003553  12.4693 199.3496 15.73216222 10682,6727.849,91.532,352.10400000000016,347.324,0.0
52876.0,STARLINK-4200,PAYLOAD,2022-08-21 14:00:01,15.73216886,0.0003389,53.2163,82.882,13.0157,287.7421,-0.0002695,-0.00038314,0.0,0 STARLINK-4200,1 52876U 22062AY  22233.58334491 -.00038314  00000-0 -26950-3 0  9995,2 52876  53.2163  82.8820 0003389  13.0157 287.7421 15.73216886  1300,6727.847,91.532,351.992,347.432,0.0
52876.0,STARLINK-4200,PAYLOAD,2022-08-21 22:00:00,15.73188789,0.0003679,53.2163,81.2347,11.4969,18.2178,0.00029197,0.00040544,0.0,0 STARLINK-4200,1 52876U 22062AY  22233.91667824  .00040544  00000-0  29197-3 0  9993,2 52876  53.2163  81.2347 0003679  11.4969  18.2178 15.73188789  1308,6727.927,91.534,352.267,347.31699999999995,0.0
52876.0,STARLINK-4200,PAYLOAD,2022-08-22 06:00:00,15.73235447,0.00036,53.216,79.584,10.45,108.1894,-1.4971e-05,-2.729e-05,0.0,0 STARLINK-4200,1 52876U 22062AY  22234.25001157 -.00002729  00000-0 -14971-4 0  9992,2 52876  53.2160  79.5840 0003600  10.4500 108.1894 15.73235447 10844,6727.794,91.531,352.081,347.237,0.0
52876.0,STARLINK-4200,PAYLOAD,2022-08-22 12:00:00,15.7325249,0.0003433,53.2159,78.3459,10.3568,85.0147,-0.00018525,-0.00026608,0.0,0 STARLINK-4200,1 52876U 22062AY  22234.50001157 -.00026608  00000-0 -18525-3 0  9990,2 52876  53.2159  78.3459 0003433  10.3568  85.0147 15.73252490  1304,6727.746,91.53,351.92,347.301,0.0
52876.0,STARLINK-4200,PAYLOAD,2022-08-22 22:00:00,15.73201073,0.0003698,53.2159,76.2864,8.0214,288.5612,0.00028091,0.00038998,0.0,0 STARLINK-4200,1 52876U 22062AY  22234.91667824  .00038998  00000-0  28091-3 0  9996,2 52876  53.2159  76.2864 0003698   8.0214 288.5612 15.73201073  1304,6727.892,91.533,352.245,347.269,0.0
52876.0,STARLINK-4200,PAYLOAD,2022-08-23 06:00:00,15.73237653,0.0003555,53.2158,74.6355,5.329,20.1908,-0.00060244,-0.00084498,0.0,0 STARLINK-4200,1 52876U 22062AY  22235.25001157 -.00084498  00000-0 -60244-3 0  9999,2 52876  53.2158  74.6355 0003555   5.3290  20.1908 15.73237653 11005,6727.788000000001,91.531,352.045,347.261,0.0
52876.0,STARLINK-4200,PAYLOAD,2022-08-23 14:00:01,15.73183265,0.0003472,53.2161,72.9852,6.6309,107.8105,0.00023139,0.0003196,0.0,0 STARLINK-4200,1 52876U 22062AY  22235.58334491  .00031960  00000-0  23139-3 0  9991,2 52876  53.2161  72.9852 0003472   6.6309 107.8105 15.73183265  1308,6727.943,91.534,352.144,347.472,0.0
52876.0,STARLINK-4200,PAYLOAD,2022-08-23 20:00:01,15.73201977,0.0003743,53.2159,71.7497,6.6023,84.5331,5.8366e-05,7.578e-05,0.0,0 STARLINK-4200,1 52876U 22062AY  22235.83334491  .00007578  00000-0  58366-4 0  9998,2 52876  53.2159  71.7497 0003743   6.6023  84.5331 15.73201977 11091,6727.89,91.533,352.273,347.236,0.0
52876.0,STARLINK-4200,PAYLOAD,2022-08-23 22:00:01,15.73186676,0.0003822999999999,53.2162,71.3377,6.6573,196.7808,0.00035612,0.0004963999999999,0.0,0 STARLINK-4200,1 52876U 22062AY  22235.91668981  .00049640  00000-0  35612-3 0  9995,2 52876  53.2162  71.3377 0003823   6.6573 196.7808 15.73186676  1303,6727.933000000001,91.534,352.37,347.226,0.0
52876.0,STARLINK-4200,PAYLOAD,2022-08-24 14:00:01,15.73225901,0.0003565,53.2158,68.0368,5.2513,16.0218,-0.00024652,-0.00035128,0.0,0 STARLINK-4200,1 52876U 22062AY  22236.58334491 -.00035128  00000-0 -24652-3 0  9995,2 52876  53.2158  68.0368 0003565   5.2513  16.0218 15.73225901  1307,6727.821,91.532,352.085,347.288,0.0
52876.0,STARLINK-4200,PAYLOAD,2022-08-24 22:00:00,15.73186984,0.0003867,53.2156,66.3891,4.7158,105.5139,0.00042791,0.00059847,0.0,0 STARLINK-4200,1 52876U 22062AY  22236.91667824  .00059847  00000-0  42791-3 0  9997,2 52876  53.2156  66.3891 0003867   4.7158 105.5139 15.73186984 11260,6727.932,91.534,352.399,347.196,0.0
52876.0,STARLINK-4200,PAYLOAD,2022-08-25 14:00:01,15.73189843,0.000371,53.2158,63.0879,10.132,277.9649,8.993799999999999e-05,0.00012015,0.0,0 STARLINK-4200,1 52876U 22062AY  22237.58334491  .00012015  00000-0  89938-4 0  9993,2 52876  53.2158  63.0879 0003710  10.1320 277.9649 15.73189843  1302,6727.924,91.534,352.285,347.293,0.0
52876.0,STARLINK-4200,PAYLOAD,2022-08-25 22:00:00,15.7318456,0.0004033,53.2158,61.4402,9.8388,7.1979,0.00047614,0.00066713,0.0,0 STARLINK-4200,1 52876U 22062AY  22237.91667824  .00066713  00000-0  47614-3 0  9997,2 52876  53.2158  61.4402 0004033   9.8388   7.1979 15.73184560  1304,6727.939,91.534,352.51800000000014,347.091,0.0
52876.0,STARLINK-4200,PAYLOAD,2022-08-26 06:00:00,15.73239763,0.0003881999999999,53.2157,59.7889,9.0272,96.9459,-0.00014104,-0.00020413,0.0,0 STARLINK-4200,1 52876U 22062AY  22238.25001157 -.00020413  00000-0 -14104-3 0  9993,2 52876  53.2157  59.7889 0003882   9.0272  96.9459 15.73239763 11471,6727.781999999997,91.531,352.259,347.035,0.0
52876.0,STARLINK-4200,PAYLOAD,2022-08-26 14:00:01,15.73222499,0.0003832,53.2156,58.1392,8.9064,186.1006,-0.00016789,-0.00024152,0.0,0 STARLINK-4200,1 52876U 22062AY  22238.58335648 -.00024152  00000-0 -16789-3 0  9999,2 52876  53.2156  58.1392 0003832   8.9064 186.1006 15.73222499  1303,6727.831,91.532,352.274,347.11800000000005,0.0
52876.0,STARLINK-4200,PAYLOAD,2022-08-26 22:00:00,15.73186991,0.0004134999999999,53.2153,56.4915,7.7352,276.1587,0.00052304,0.00073414,0.0,0 STARLINK-4200,1 52876U 22062AY  22238.91667824  .00073414  00000-0  52304-3 0  9996,2 52876  53.2153  56.4915 0004135   7.7352 276.1587 15.73186991  1306,6727.932,91.534,352.579,347.015,0.0
52876.0,STARLINK-4200,PAYLOAD,2022-08-27 14:00:01,15.7322674,0.0003901,53.2156,53.1903,5.0798,96.7082,-0.00055958,-0.00078557,0.0,0 STARLINK-4200,1 52876U 22062AY  22239.58334491 -.00078557  00000-0 -55958-3 0  9994,2 52876  53.2156  53.1903 0003901   5.0798  96.7082 15.73226740  1308,6727.819,91.532,352.30800000000005,347.059,0.0
